H1 CPF 01  gfz 2022 12 08 13  8422 tandemx   
H2 1003001  6202 36605    2022 12 08 12 59 42 2022 12 13 00 00 42   120 1 1  0 0 0
H9
10 0 59923   6462.000000  0    3019153.085   4958442.472  -3717733.146
10 0 59923   6582.000000  0    2899108.473   4403697.265  -4442188.127
10 0 59923   6702.000000  0    2718294.862   3775005.716  -5088847.828
10 0 59923   6822.000000  0    2478718.486   3084417.129  -5646481.443
10 0 59923   6942.000000  0    2183615.262   2344982.097  -6105431.520
10 0 59923   7062.000000  0    1837405.315   1570501.642  -6457770.225
10 0 59923   7182.000000  0    1445625.390    775269.224  -6697423.983
10 0 59923   7302.000000  0    1014840.428    -26189.988  -6820268.283
10 0 59923   7422.000000  0     552533.473   -819379.871  -6824191.605
10 0 59923   7542.000000  0      66977.494  -1590089.679  -6709126.061
10 0 59923   7662.000000  0    -432908.315  -2324640.903  -6477047.918
10 0 59923   7782.000000  0    -937718.032  -3010124.733  -6131949.229
10 0 59923   7902.000000  0   -1437731.542  -3634626.662  -5679775.997
10 0 59923   8022.000000  0   -1923096.843  -4187432.882  -5128336.061
10 0 59923   8142.000000  0   -2384020.938  -4659218.116  -4487176.777
10 0 59923   8262.000000  0   -2810966.116  -5042210.145  -3767430.485
10 0 59923   8382.000000  0   -3194846.614  -5330326.013  -2981630.007
10 0 59923   8502.000000  0   -3527221.770  -5519278.039  -2143497.176
10 0 59923   8622.000000  0   -3800481.955  -5606646.606  -1267706.314
10 0 59923   8742.000000  0   -4008021.903  -5591916.794   -369625.898
10 0 59923   8862.000000  0   -4144396.100  -5476476.917    534956.273
10 0 59923   8982.000000  0   -4205452.521  -5263578.613   1430118.277
10 0 59923   9102.000000  0   -4188440.918  -4958258.513   2300093.926
10 0 59923   9222.000000  0   -4092092.067  -4567223.220   3129559.330
10 0 59923   9342.000000  0   -3916666.997  -4098701.966   3903909.972
10 0 59923   9462.000000  0   -3663974.664  -3562270.255   4609523.537
10 0 59923   9582.000000  0   -3337357.346  -2968648.164   5234001.731
10 0 59923   9702.000000  0   -2941645.524  -2329480.480   5766386.337
10 0 59923   9822.000000  0   -2483083.279  -1657104.298   6197348.033
10 0 59923   9942.000000  0   -1969226.235   -964307.480   6519346.090
10 0 59923  10062.000000  0   -1408812.389   -264081.494   6726755.291
10 0 59923  10182.000000  0    -811610.155    430622.807   6815955.737
10 0 59923  10302.000000  0    -188248.412   1107133.098   6785392.054
10 0 59923  10422.000000  0     449972.428   1753286.394   6635599.350
10 0 59923  10542.000000  0    1091285.013   2357647.833   6369194.372
10 0 59923  10662.000000  0    1723671.305   2909712.811   5990831.874
10 0 59923  10782.000000  0    2335086.971   3400090.828   5507128.849
10 0 59923  10902.000000  0    2913691.722   3820669.241   4926555.690
10 0 59923  11022.000000  0    3448081.602   4164752.198   4259292.557
10 0 59923  11142.000000  0    3927515.471   4427170.973   3517055.364
10 0 59923  11262.000000  0    4342135.851   4604367.820   2712894.760
10 0 59923  11382.000000  0    4683177.376   4694445.861   1860963.267
10 0 59923  11502.000000  0    4943152.635   4697185.930    976263.241
10 0 59923  11622.000000  0    5116018.879   4614029.606     74376.587
10 0 59923  11742.000000  0    5197314.388   4448027.043   -828819.728
10 0 59923  11862.000000  0    5184262.139   4203751.765  -1717441.683
10 0 59923  11982.000000  0    5075840.669   3887185.441  -2575884.919
10 0 59923  12102.000000  0    4872819.559   3505575.295  -3389104.530
10 0 59923  12222.000000  0    4577758.351   3067269.045  -4142881.649
10 0 59923  12342.000000  0    4194969.746   2581531.169  -4824072.019
10 0 59923  12462.000000  0    3730449.205   2058344.248  -5420830.709
10 0 59923  12582.000000  0    3191773.314   1508202.001  -5922810.126
10 0 59923  12702.000000  0    2587968.745    941898.701  -6321329.531
10 0 59923  12822.000000  0    1929355.608    370318.745  -6609513.172
10 0 59923  12942.000000  0    1227370.027   -195768.842  -6782397.297
10 0 59923  13062.000000  0     494367.052   -745909.183  -6837008.341
10 0 59923  13182.000000  0    -256594.417  -1270150.267  -6772407.130
10 0 59923  13302.000000  0   -1011978.009  -1759217.501  -6589702.431
10 0 59923  13422.000000  0   -1758007.933  -2204673.908  -6292035.160
10 0 59923  13542.000000  0   -2480914.687  -2599063.839  -5884529.857
10 0 59923  13662.000000  0   -3167183.931  -2936036.952  -5374215.797
10 0 59923  13782.000000  0   -3803807.664  -3210452.773  -4769918.333
10 0 59923  13902.000000  0   -4378532.888  -3418462.731  -4082117.175
10 0 59923  14022.000000  0   -4880101.274  -3557566.878  -3322774.690
10 0 59923  14142.000000  0   -5298476.305  -3626644.954  -2505135.798
10 0 59923  14262.000000  0   -5625052.029  -3625960.150  -1643500.979
10 0 59923  14382.000000  0   -5852837.398  -3557134.558   -752976.561
10 0 59923  14502.000000  0   -5976611.938  -3423096.913    150793.205
10 0 59923  14622.000000  0   -5993048.333  -3228003.327   1051907.007
10 0 59923  14742.000000  0   -5900797.616  -2977132.634   1934495.864
10 0 59923  14862.000000  0   -5700532.578  -2676757.666   2783012.389
10 0 59923  14982.000000  0   -5394950.923  -2333997.817   3582512.073
10 0 59923  15102.000000  0   -4988737.762  -1956656.036   4318924.127
10 0 59923  15222.000000  0   -4488486.487  -1553042.898   4979302.438
10 0 59923  15342.000000  0   -3902583.925  -1131795.435   5552051.986
10 0 59923  15462.000000  0   -3241062.772   -701693.927   6027130.335
10 0 59923  15582.000000  0   -2515422.179   -271479.029   6396220.611
10 0 59923  15702.000000  0   -1738420.258    150325.532   6652870.949
10 0 59923  15822.000000  0    -923845.367    555579.735   6792600.071
10 0 59923  15942.000000  0     -86270.152    936682.758   6812970.614
10 0 59923  16062.000000  0     759208.854   1286714.650   6713628.715
10 0 59923  16182.000000  0    1597242.460   1599562.045   6496309.925
10 0 59923  16302.000000  0    2412506.666   1870025.178   6164810.251
10 0 59923  16422.000000  0    3189982.539   2093904.576   5724924.508
10 0 59923  16542.000000  0    3915235.562   2268066.876   5184351.012
10 0 59923  16662.000000  0    4574686.988   2390488.298   4552562.406
10 0 59923  16782.000000  0    5155873.605   2460275.985   3840646.411
10 0 59923  16902.000000  0    5647693.966   2477665.301   3061114.674
10 0 59923  17022.000000  0    6040627.628   2443991.771   2227681.057
10 0 59923  17142.000000  0    6326927.604   2361641.046   1355019.704
10 0 59923  17262.000000  0    6500780.614   2233975.533    458500.686
10 0 59923  17382.000000  0    6558428.562   2065240.257   -446088.963
10 0 59923  17502.000000  0    6498247.237   1860450.384  -1342832.906
10 0 59923  17622.000000  0    6320783.001   1625263.025  -2215972.070
10 0 59923  17742.000000  0    6028748.582   1365837.065  -3050189.112
10 0 59923  17862.000000  0    5626972.696   1088683.812  -3830882.435
10 0 59923  17982.000000  0    5122308.421    800513.345  -4544423.012
10 0 59923  18102.000000  0    4523502.946    508080.780  -5178389.108
10 0 59923  18222.000000  0    3841034.542    218035.681  -5721775.139
10 0 59923  18342.000000  0    3086920.178    -63221.670  -6165173.428
10 0 59923  18462.000000  0    2274496.881   -329674.650  -6500926.687
10 0 59923  18582.000000  0    1418183.157   -575813.198  -6723247.962
10 0 59923  18702.000000  0     533224.995   -796742.947  -6828311.254
10 0 59923  18822.000000  0    -364572.674   -988278.451  -6814310.056
10 0 59923  18942.000000  0   -1259121.414  -1147019.494  -6681484.041
10 0 59923  19062.000000  0   -2134330.791  -1270410.011  -6432116.192
10 0 59923  19182.000000  0   -2974391.597  -1356778.419  -6070496.883
10 0 59923  19302.000000  0   -3764054.843  -1405359.080  -5602857.940
10 0 59923  19422.000000  0   -4488907.503  -1416295.121  -5037277.534
10 0 59923  19542.000000  0   -5135638.480  -1390621.528  -4383551.775
10 0 59923  19662.000000  0   -5692288.738  -1330228.994  -3653036.153
10 0 59923  19782.000000  0   -6148482.302  -1237809.059  -2858457.616
10 0 59923  19902.000000  0   -6495631.482  -1116781.052  -2013698.298
10 0 59923  20022.000000  0   -6727110.765   -971202.276  -1133555.065
10 0 59923  20142.000000  0   -6838395.480   -805663.496   -233478.355
10 0 59923  20262.000000  0   -6827159.403   -625170.706    670705.162
10 0 59923  20382.000000  0   -6693328.546   -435017.838   1563078.155
10 0 59923  20502.000000  0   -6439090.143   -240653.689   2427922.002
10 0 59923  20622.000000  0   -6068855.642    -47545.549   3250002.681
10 0 59923  20742.000000  0   -5589178.430    138956.763   4014847.014
10 0 59923  20862.000000  0   -5008628.747    313752.356   4709002.386
10 0 59923  20982.000000  0   -4337630.048    472113.035   5320274.565
10 0 59923  21102.000000  0   -3588262.198    609797.246   5837939.841
10 0 59923  21222.000000  0   -2774035.099    723150.722   6252929.933
10 0 59923  21342.000000  0   -1909637.683    809191.684   6557985.693
10 0 59923  21462.000000  0   -1010667.187    865680.344   6747778.540
10 0 59923  21582.000000  0     -93344.923    891170.344   6818996.692
10 0 59923  21702.000000  0     825776.102    885041.308   6770398.669
10 0 59923  21822.000000  0    1730108.633    847512.632   6602833.531
10 0 59923  21942.000000  0    2603329.386    779638.088   6319227.122
10 0 59923  22062.000000  0    3429673.648    683280.999   5924534.973
10 0 59923  22182.000000  0    4194222.462    561070.552   5425660.692
10 0 59923  22302.000000  0    4883175.665    416339.966   4831341.014
10 0 59923  22422.000000  0    5484107.538    253046.577   4151999.423
10 0 59923  22542.000000  0    5986200.734     75677.186   3399567.824
10 0 59923  22662.000000  0    6380451.638   -110859.603   2587278.111
10 0 59923  22782.000000  0    6659841.090   -301353.119   1729427.444
10 0 59923  22902.000000  0    6819467.678   -490419.881    841123.329
99
